BEIDOU-2 IGSO-1 (C06)   
1 36828U 10036A   24097.68462399 -.00000116  00000+0  00000+0 0  9993
2 36828  54.2447 170.2178 0040189 198.8456 177.2802  1.00247232 50197
BEIDOU-2 G4 (C04)       
1 37210U 10057A   24097.51913691 -.00000120  00000+0  00000+0 0  9995
2 37210   1.6737  67.6355 0004308 206.8128 267.6867  1.00272623 49258
BEIDOU-2 IGSO-2 (C07)   
1 37256U 10068A   24097.88516521 -.00000197  00000+0  00000+0 0  9992
2 37256  49.0110 281.6826 0032410 209.0584 131.8402  1.00272573 48751
BEIDOU-2 IGSO-3 (C08)   
1 37384U 11013A   24096.90562433 -.00000183  00000+0  00000+0 0  9995
2 37384  61.2536  47.8078 0025953 181.3638  40.4639  1.00276378 47627
BEIDOU-2 IGSO-4 (C09)   
1 37763U 11038A   24097.67730701 -.00000068  00000+0  00000+0 0  9995
2 37763  54.5513 172.8098 0122792 228.0058 134.7187  1.00273723 46606
BEIDOU-2 IGSO-5 (C10)   
1 37948U 11073A   24096.84682851 -.00000135  00000+0  00000+0 0  9994
2 37948  49.1441 281.3778 0094529 219.2656  93.8504  1.00267261 45083
BEIDOU-2 G5 (C05)       
1 38091U 12008A   24097.59059733  .00000050  00000+0  00000+0 0  9998
2 38091   1.9016  70.1854 0009665 259.6905 136.7525  1.00271184 44334
BEIDOU-2 M3 (C11)       
1 38250U 12018A   24094.29602879 -.00000051  00000+0  00000+0 0  9997
2 38250  56.3856 331.8328 0021359 267.8585  91.9472  1.86231198 80955
BEIDOU-2 M4 (C12)       
1 38251U 12018B   24095.30045940 -.00000050  00000+0  00000+0 0  9990
2 38251  56.2932 331.0765 0012323 274.2219  85.6887  1.86231932 80972
BEIDOU-2 M6 (C14)       
1 38775U 12050B   24097.15771284  .00000050  00000+0  00000+0 0  9998
2 38775  55.8579  89.5689 0014721 329.9087  30.0233  1.86231013 78370
BEIDOU-2 G6 (C02)       
1 38953U 12059A   24097.59564463 -.00000182  00000+0  00000+0 0  9999
2 38953   2.3767  80.9420 0011065 305.5204 107.3335  1.00268671 41873
BEIDOU-3S IGSO-1S (C31) 
1 40549U 15019A   24096.90219545 -.00000148  00000+0  00000+0 0  9996
2 40549  50.7056 305.0397 0035999 191.8384 117.5201  1.00264380 33022
BEIDOU-3S M2S (C58)     
1 40748U 15037A   24097.11219525 -.00000055  00000+0  00000+0 0  9996
2 40748  55.5260 329.4818 0008286 263.8781  96.0795  1.86233023 59189
BEIDOU-3S M1S (C57)     
1 40749U 15037B   24097.38250563 -.00000056  00000+0  00000+0 0  9994
2 40749  55.5288 329.4594 0005804 354.7041   5.3418  1.86232847 59181
BEIDOU-3S IGSO-2S (C56) 
1 40938U 15053A   24096.86656830 -.00000133  00000+0  00000+0 0  9997
2 40938  50.4734 268.2435 0049761 187.5900 147.1928  1.00278870 31308
BEIDOU-2 IGSO-6 (C13)   
1 41434U 16021A   24097.31184285 -.00000159  00000+0  00000+0 0  9994
2 41434  59.0777  46.0747 0049228 225.1172 131.5703  1.00284066 29431
BEIDOU-2 G7 (C03)       
1 41586U 16037A   24097.59869594 -.00000362  00000+0  00000+0 0  9998
2 41586   1.7345  68.6532 0009124 322.7294 129.9957  1.00275495 28758
BEIDOU-3 M1 (C19)       
1 43001U 17069A   24097.46078086  .00000048  00000+0  00000+0 0  9992
2 43001  56.0084  89.6458 0012603 299.9329  59.9570  1.86231173 43675
BEIDOU-3 M2 (C20)       
1 43002U 17069B   24097.39786144  .00000048  00000+0  00000+0 0  9996
2 43002  56.0078  89.6839 0010225 318.1256  41.8116  1.86230926 43663
BEIDOU-3 M7 (C27)       
1 43107U 18003A   24097.14761842 -.00000057  00000+0  00000+0 0  9993
2 43107  54.9836 330.1030 0005047  60.2498 299.8518  1.86232270 42411
BEIDOU-3 M8 (C28)       
1 43108U 18003B   24097.08745818 -.00000057  00000+0  00000+0 0  9992
2 43108  54.9764 330.0910 0002787 280.4896  79.5303  1.86230777 42420
BEIDOU-3 M4 (C22)       
1 43207U 18018A   24097.52883939  .00000047  00000+0  00000+0 0  9992
2 43207  55.9672  89.7353 0007163 335.5457  24.4351  1.86231103 41814
BEIDOU-3 M3 (C21)       
1 43208U 18018B   24096.52150545  .00000056  00000+0  00000+0 0  9992
2 43208  55.9657  89.7733 0010269 308.4902  51.4375  1.86231114 41790
BEIDOU-3 M9 (C29)       
1 43245U 18029A   24095.13251592 -.00000047  00000+0  00000+0 0  9996
2 43245  54.8714 327.8877 0000981   7.8928 352.1587  1.86232300 40924
BEIDOU-3 M10 (C30)      
1 43246U 18029B   24097.21009000 -.00000054  00000+0  00000+0 0  9991
2 43246  54.8671 327.8435 0004900  13.0942 346.9697  1.86232650 40951
BEIDOU-2 IGSO-7 (C16)   
1 43539U 18057A   24097.60240006 -.00000132  00000+0  00000+0 0  9990
2 43539  55.1340 169.9939 0073372 232.2957 123.0723  1.00274402 21092
BEIDOU-3 M5 (C23)       
1 43581U 18062A   24096.89497634 -.00000014  00000+0  00000+0 0  9993
2 43581  54.1419 209.5964 0002468 280.2970  79.6559  1.86228448 38690
BEIDOU-3 M6 (C24)       
1 43582U 18062B   24097.83506383 -.00000011  00000+0  00000+0 0  9998
2 43582  54.1414 209.5538 0004954  30.8497 329.1617  1.86229223 38711
BEIDOU-3 M12 (C26)      
1 43602U 18067A   24097.76921387 -.00000010  00000+0  00000+0 0  9992
2 43602  54.2311 208.2310 0007161  27.1659 332.8561  1.86231606 38196
BEIDOU-3 M11 (C25)      
1 43603U 18067B   24096.82921452 -.00000014  00000+0  00000+0 0  9996
2 43603  54.2285 208.2281 0003935  19.6082 340.3900  1.86231463 38209
BEIDOU-3 M13 (C32)      
1 43622U 18072A   24097.32660976  .00000048  00000+0  00000+0 0  9996
2 43622  55.9380  89.2753 0009115 297.8175  62.1053  1.86231231 37721
BEIDOU-3 M14 (C33)      
1 43623U 18072B   24096.65511598  .00000054  00000+0  00000+0 0  9994
2 43623  55.9394  89.2908 0006739 316.2285  43.7366  1.86231233 37708
BEIDOU-3 M16 (C35)      
1 43647U 18078A   24095.20740703 -.00000048  00000+0  00000+0 0  9992
2 43647  54.7673 327.9893 0008211  17.7254 342.3532  1.86232178 37186
BEIDOU-3 M15 (C34)      
1 43648U 18078B   24096.41047897 -.00000051  00000+0  00000+0 0  9995
2 43648  54.7622 327.9508 0005287  26.9150 333.1634  1.86232054 37231
BEIDOU-3 G1 (C59)       
1 43683U 18085A   24097.50735733 -.00000285  00000+0  00000+0 0  9995
2 43683   2.0157 112.5041 0003453 339.1423  66.2462  1.00275884 20020
BEIDOU-3 M17 (C36)      
1 43706U 18093A   24097.63356453 -.00000012  00000+0  00000+0 0  9990
2 43706  54.2245 209.5044 0007723 282.3565  77.5390  1.86228099 36597
BEIDOU-3 M18 (C37)      
1 43707U 18093B   24096.96251151 -.00000014  00000+0  00000+0 0  9997
2 43707  54.2255 209.5189 0006137 317.1960  42.7370  1.86229563 36592
BEIDOU-3 IGSO-1 (C38)   
1 44204U 19023A   24097.61733804 -.00000219  00000+0  00000+0 0  9994
2 44204  57.5418  45.9721 0019658 215.0741 276.0327  1.00270142 18309
BEIDOU-2 G8 (C01)       
1 44231U 19027A   24097.56629031 -.00000257  00000+0  00000+0 0  9990
2 44231   1.7710  73.3802 0002477 171.7975 298.4162  1.00265896 18044
BEIDOU-3 IGSO-2 (C39)   
1 44337U 19035A   24097.70645139 -.00000127  00000+0  00000+0 0  9995
2 44337  55.1678 165.8955 0032938 206.8469 196.2068  1.00262964 17666
BEIDOU-3 M24 (C46)      
1 44542U 19061A   24095.95868567 -.00000013  00000+0  00000+0 0  9993
2 44542  54.4524 209.8331 0007400   1.3510 358.6319  1.86231050 30837
BEIDOU-3 M23 (C45)      
1 44543U 19061B   24097.70544920 -.00000011  00000+0  00000+0 0  9991
2 44543  54.4508 209.7431 0004202 349.4564  13.8169  1.86231359 30860
BEIDOU-3 IGSO-3 (C40)   
1 44709U 19073A   24095.93352153 -.00000150  00000+0  00000+0 0  9990
2 44709  56.1739 289.4948 0036379 179.4595 180.5432  1.00271889 16409
BEIDOU-3 M22 (C44)      
1 44793U 19078A   24097.41543398 -.00000056  00000+0  00000+0 0  9991
2 44793  54.6137 327.8538 0007207  24.6613 335.4239  1.86231944 29726
BEIDOU-3 M21 (C43)      
1 44794U 19078B   24097.00846198 -.00000054  00000+0  00000+0 0  9999
2 44794  54.5877 327.8454 0005008  20.3060 339.7647  1.86232445 29716
BEIDOU-3 M19 (C41)      
1 44864U 19090A   24097.21492462  .00000049  00000+0  00000+0 0  9998
2 44864  55.8719  89.4542 0019968 281.7716  49.8399  1.86231423 29294
BEIDOU-3 M20 (C42)      
1 44865U 19090B   24097.17172675  .00000050  00000+0  00000+0 0  9997
2 44865  55.8735  89.4888 0017818 293.3554  99.0467  1.86231372 29282
BEIDOU-3 G2 (C60)       
1 45344U 20017A   24097.59486142 -.00000149  00000+0  00000+0 0  9994
2 45344   2.2329  26.6671 0001204 322.1322 140.7652  1.00271415 15226
BEIDOU-3 G3 (C61)       
1 45807U 20040A   24097.59880310 -.00000362  00000+0  00000+0 0  9996
2 45807   0.6700  31.4351 0006839 301.5779 188.4376  1.00267515 14036
BEIDOU-3 G4             
1 56564U 23066A   24097.51956355 -.00000125  00000+0  00000+0 0  9991
2 56564   2.3036 288.2098 0003653 189.6137  64.5194  1.00272231  3359
BEIDOU-3 M25            
1 58654U 23207A   24097.09112007  .00000048  00000+0  00000+0 0  9994
2 58654  55.0540  89.5243 0005082 288.4272  71.5348  1.86232109  1908
BEIDOU-3 M26            
1 58655U 23207B   24096.88993181  .00000050  00000+0  00000+0 0  9994
2 58655  55.0557  89.5166 0005725 274.3049  85.6480  1.86231672  1885
